{
  "type": "FeatureCollection",
  "features": [
    {
      "type": "Feature",
      "properties": {
        "norad_id": 33924,
        "name": "COSMOS 2251 DEB",
        "group": "cosmos-2251-debris",
        "lat": -1.3470924338918242,
        "lon": -84.5016624440336,
        "alt_km": 861.5945774740158,
        "timestamp": "2025-12-09T04:51:47.884502+00:00",
        "meta_object_name": "COSMOS 2251 DEB",
        "meta_object_id": "1993-036ED",
        "meta_epoch": "2025-12-08T19:58:45.421824",
        "meta_mean_motion": 13.50215409,
        "meta_eccentricity": 0.0404051,
        "meta_inclination": 73.9143,
        "meta_ra_of_asc_node": 276.4818,
        "meta_arg_of_pericenter": 312.6228,
        "meta_mean_anomaly": 44.1453,
        "meta_ephemeris_type": 0,
        "meta_classification_type": "U",
        "meta_norad_cat_id": 33924,
        "meta_element_set_no": 999,
        "meta_rev_at_epoch": 82686,
        "meta_bstar": 0.001947,
        "meta_mean_motion_dot": 2.041e-05,
        "meta_mean_motion_ddot": 0,
        "tle_line1": "1 33924U 93036ED  25342.83247016  .00002041  00000+0  19470-2 0  9998",
        "tle_line2": "2 33924  73.9143 276.4818 0404051 312.6228  44.1453 13.50215409826865"
      },
      "geometry": {
        "type": "Point",
        "coordinates": [
          -84.5016624440336,
          -1.3470924338918242
        ]
      }
    },
    {
      "type": "Feature",
      "properties": {
        "norad_id": 33928,
        "name": "COSMOS 2251 DEB",
        "group": "cosmos-2251-debris",
        "lat": 62.10013716210824,
        "lon": -153.77002213160387,
        "alt_km": 748.6548634898736,
        "timestamp": "2025-12-09T04:51:47.884512+00:00",
        "meta_object_name": "COSMOS 2251 DEB",
        "meta_object_id": "1993-036EH",
        "meta_epoch": "2025-12-08T15:04:29.460864",
        "meta_mean_motion": 14.47393927,
        "meta_eccentricity": 0.006126,
        "meta_inclination": 73.9261,
        "meta_ra_of_asc_node": 60.306,
        "meta_arg_of_pericenter": 355.3115,
        "meta_mean_anomaly": 4.746,
        "meta_ephemeris_type": 0,
        "meta_classification_type": "U",
        "meta_norad_cat_id": 33928,
        "meta_element_set_no": 999,
        "meta_rev_at_epoch": 88585,
        "meta_bstar": 0.00047191,
        "meta_mean_motion_dot": 1.743e-05,
        "meta_mean_motion_ddot": 0,
        "tle_line1": "1 33928U 93036EH  25342.62811876  .00001743  00000+0  47191-3 0  9990",
        "tle_line2": "2 33928  73.9261  60.3060 0061260 355.3115   4.7460 14.47393927885852"
      },
      "geometry": {
        "type": "Point",
        "coordinates": [
          -153.77002213160387,
          62.10013716210824
        ]
      }
    },
    {
      "type": "Feature",
      "properties": {
        "norad_id": 33932,
        "name": "COSMOS 2251 DEB",
        "group": "cosmos-2251-debris",
        "lat": -0.3813760223405133,
        "lon": -37.6675710480309,
        "alt_km": 746.0582781251405,
        "timestamp": "2025-12-09T04:51:47.884522+00:00",
        "meta_object_name": "COSMOS 2251 DEB",
        "meta_object_id": "1993-036EM",
        "meta_epoch": "2025-12-08T15:30:53.217792",
        "meta_mean_motion": 14.38740234,
        "meta_eccentricity": 0.0035094,
        "meta_inclination": 74.0346,
        "meta_ra_of_asc_node": 323.4669,
        "meta_arg_of_pericenter": 40.797,
        "meta_mean_anomaly": 319.5801,
        "meta_ephemeris_type": 0,
        "meta_classification_type": "U",
        "meta_norad_cat_id": 33932,
        "meta_element_set_no": 999,
        "meta_rev_at_epoch": 87939,
        "meta_bstar": 0.00090358,
        "meta_mean_motion_dot": 2.769e-05,
        "meta_mean_motion_ddot": 0,
        "tle_line1": "1 33932U 93036EM  25342.64644928  .00002769  00000+0  90358-3 0  9991",
        "tle_line2": "2 33932  74.0346 323.4669 0035094  40.7970 319.5801 14.38740234879396"
      },
      "geometry": {
        "type": "Point",
        "coordinates": [
          -37.6675710480309,
          -0.3813760223405133
        ]
      }
    },
    {
      "type": "Feature",
      "properties": {
        "norad_id": 33933,
        "name": "COSMOS 2251 DEB",
        "group": "cosmos-2251-debris",
        "lat": -73.29548638141179,
        "lon": -5.3115387717582365,
        "alt_km": 834.9442952685686,
        "timestamp": "2025-12-09T04:51:47.884532+00:00",
        "meta_object_name": "COSMOS 2251 DEB",
        "meta_object_id": "1993-036EN",
        "meta_epoch": "2025-12-08T15:51:42.251616",
        "meta_mean_motion": 14.33479658,
        "meta_eccentricity": 0.0070792,
        "meta_inclination": 74.0894,
        "meta_ra_of_asc_node": 67.5701,
        "meta_arg_of_pericenter": 77.1992,
        "meta_mean_anomaly": 283.7058,
        "meta_ephemeris_type": 0,
        "meta_classification_type": "U",
        "meta_norad_cat_id": 33933,
        "meta_element_set_no": 999,
        "meta_rev_at_epoch": 87726,
        "meta_bstar": 0.00056171,
        "meta_mean_motion_dot": 1.571e-05,
        "meta_mean_motion_ddot": 0,
        "tle_line1": "1 33933U 93036EN  25342.66090569  .00001571  00000+0  56171-3 0  9995",
        "tle_line2": "2 33933  74.0894  67.5701 0070792  77.1992 283.7058 14.33479658877264"
      },
      "geometry": {
        "type": "Point",
        "coordinates": [
          -5.3115387717582365,
          -73.29548638141179
        ]
      }
    },
    {
      "type": "Feature",
      "properties": {
        "norad_id": 33934,
        "name": "COSMOS 2251 DEB",
        "group": "cosmos-2251-debris",
        "lat": 61.56923296559745,
        "lon": 139.22553871447974,
        "alt_km": 700.6676734102448,
        "timestamp": "2025-12-09T04:51:47.884542+00:00",
        "meta_object_name": "COSMOS 2251 DEB",
        "meta_object_id": "1993-036EP",
        "meta_epoch": "2025-12-08T18:41:12.780096",
        "meta_mean_motion": 14.59052953,
        "meta_eccentricity": 0.0015816,
        "meta_inclination": 74.0384,
        "meta_ra_of_asc_node": 108.1184,
        "meta_arg_of_pericenter": 231.9235,
        "meta_mean_anomaly": 128.0504,
        "meta_ephemeris_type": 0,
        "meta_classification_type": "U",
        "meta_norad_cat_id": 33934,
        "meta_element_set_no": 999,
        "meta_rev_at_epoch": 88681,
        "meta_bstar": 0.0016568,
        "meta_mean_motion_dot": 7.781e-05,
        "meta_mean_motion_ddot": 0,
        "tle_line1": "1 33934U 93036EP  25342.77862014  .00007781  00000+0  16568-2 0  9994",
        "tle_line2": "2 33934  74.0384 108.1184 0015816 231.9235 128.0504 14.59052953886813"
      },
      "geometry": {
        "type": "Point",
        "coordinates": [
          139.22553871447974,
          61.56923296559745
        ]
      }
    },
    {
      "type": "Feature",
      "properties": {
        "norad_id": 33936,
        "name": "COSMOS 2251 DEB",
        "group": "cosmos-2251-debris",
        "lat": -19.714494128007587,
        "lon": 38.35063553990544,
        "alt_km": 712.1083119559426,
        "timestamp": "2025-12-09T04:51:47.884552+00:00",
        "meta_object_name": "COSMOS 2251 DEB",
        "meta_object_id": "1993-036ER",
        "meta_epoch": "2025-12-08T14:09:33.571296",
        "meta_mean_motion": 14.60229663,
        "meta_eccentricity": 0.0027829,
        "meta_inclination": 74.0188,
        "meta_ra_of_asc_node": 45.4151,
        "meta_arg_of_pericenter": 201.6236,
        "meta_mean_anomaly": 158.3757,
        "meta_ephemeris_type": 0,
        "meta_classification_type": "U",
        "meta_norad_cat_id": 33936,
        "meta_element_set_no": 999,
        "meta_rev_at_epoch": 88829,
        "meta_bstar": 0.0011616,
        "meta_mean_motion_dot": 5.607e-05,
        "meta_mean_motion_ddot": 0,
        "tle_line1": "1 33936U 93036ER  25342.58997189  .00005607  00000+0  11616-2 0  9991",
        "tle_line2": "2 33936  74.0188  45.4151 0027829 201.6236 158.3757 14.60229663888292"
      },
      "geometry": {
        "type": "Point",
        "coordinates": [
          38.35063553990544,
          -19.714494128007587
        ]
      }
    },
    {
      "type": "Feature",
      "properties": {
        "norad_id": 33938,
        "name": "COSMOS 2251 DEB",
        "group": "cosmos-2251-debris",
        "lat": 4.246556171801585,
        "lon": -145.00256958349368,
        "alt_km": 733.8076316508732,
        "timestamp": "2025-12-09T04:51:47.884562+00:00",
        "meta_object_name": "COSMOS 2251 DEB",
        "meta_object_id": "1993-036ET",
        "meta_epoch": "2025-12-08T19:13:46.018848",
        "meta_mean_motion": 14.46776553,
        "meta_eccentricity": 0.001686,
        "meta_inclination": 74.0451,
        "meta_ra_of_asc_node": 214.5294,
        "meta_arg_of_pericenter": 296.9861,
        "meta_mean_anomaly": 137.5098,
        "meta_ephemeris_type": 0,
        "meta_classification_type": "U",
        "meta_norad_cat_id": 33938,
        "meta_element_set_no": 999,
        "meta_rev_at_epoch": 88343,
        "meta_bstar": 0.00078651,
        "meta_mean_motion_dot": 2.826e-05,
        "meta_mean_motion_ddot": 0,
        "tle_line1": "1 33938U 93036ET  25342.80122707  .00002826  00000+0  78651-3 0  9997",
        "tle_line2": "2 33938  74.0451 214.5294 0016860 296.9861 137.5098 14.46776553883435"
      },
      "geometry": {
        "type": "Point",
        "coordinates": [
          -145.00256958349368,
          4.246556171801585
        ]
      }
    }
  ]
}